[{"OBJECT_NAME":"STARLINK-31267","OBJECT_ID":"2024-068P","EPOCH":"2026-03-08T06:22:55.288416","MEAN_MOTION":15.27568172,"ECCENTRICITY":0.00011376,"INCLINATION":43.0021,"RA_OF_ASC_NODE":38.3404,"ARG_OF_PERICENTER":277.3139,"MEAN_ANOMALY":82.7584,"EPHEMERIS_TYPE":0,"CLASSIFICATION_TYPE":"U","NORAD_CAT_ID":59468,"ELEMENT_SET_NO":999,"REV_AT_EPOCH":10835,"BSTAR":-1.8480277e-5,"MEAN_MOTION_DOT":-7.7e-6,"MEAN_MOTION_DDOT":0},{"OBJECT_NAME":"KSLV-II R\/B","OBJECT_ID":"2023-072H","EPOCH":"2026-03-09T20:13:26.441760","MEAN_MOTION":15.33109439,"ECCENTRICITY":0.00241884,"INCLINATION":97.4991,"RA_OF_ASC_NODE":274.152,"ARG_OF_PERICENTER":318.2938,"MEAN_ANOMALY":41.646,"EPHEMERIS_TYPE":0,"CLASSIFICATION_TYPE":"U","NORAD_CAT_ID":56750,"ELEMENT_SET_NO":999,"REV_AT_EPOCH":15516,"BSTAR":0.00028309532,"MEAN_MOTION_DOT":9.057e-5,"MEAN_MOTION_DDOT":0}]
